{"type": "FeatureCollection", "features": [ {"type": "Feature", "properties": {"norad_id": 28649, "name": "IRS-P5 (CARTOSAT-1)", "group": "resource", "lat": 57.8760211782596, "lon": 1.7481510072753368, "alt_km": 590.286899231749, "timestamp": "2025-12-13T13:34:34.731252+00:00", "meta": {"OBJECT_NAME": "IRS-P5 (CARTOSAT-1)", "OBJECT_ID": "2005-017A", "EPOCH": "2025-12-13T00:25:25.053312", "MEAN_MOTION": 14.90406135, "ECCENTRICITY": 0.00012075, "INCLINATION": 97.5497, "RA_OF_ASC_NODE": 13.4186, "ARG_OF_PERICENTER": 47.514, "MEAN_ANOMALY": 312.618, "EPHEMERIS_TYPE": 0, "CLASSIFICATION_TYPE": "U", "NORAD_CAT_ID": 28649, "ELEMENT_SET_NO": 999, "REV_AT_EPOCH": 11608, "BSTAR": 0.0003041763, "MEAN_MOTION_DOT": 2.911e-05, "MEAN_MOTION_DDOT": 0}, "tle": {"line1": "1 28649U 05017A   25347.01765108  .00002911  00000+0  30418-3 0  9992", "line2": "2 28649  97.5497  13.4186 0001207  47.5140 312.6180 14.90406135116086"}}, "geometry": {"type": "Point", "coordinates": [1.7481510072753368, 57.8760211782596]}}, {"type": "Feature", "properties": {"norad_id": 28893, "name": "SINAH 1", "group": "resource", "lat": -26.204582842252638, "lon": 120.22485842052286, "alt_km": 696.324879833468, "timestamp": "2025-12-13T13:34:34.731261+00:00", "meta": {"OBJECT_NAME": "SINAH 1", "OBJECT_ID": "2005-043D", "EPOCH": "2025-12-12T22:56:02.951808", "MEAN_MOTION": 14.63963084, "ECCENTRICITY": 0.00153534, "INCLINATION": 98.2603, "RA_OF_ASC_NODE": 115.5133, "ARG_OF_PERICENTER": 136.3453, "MEAN_ANOMALY": 223.8967, "EPHEMERIS_TYPE": 0, "CLASSIFICATION_TYPE": "U", "NORAD_CAT_ID": 28893, "ELEMENT_SET_NO": 999, "REV_AT_EPOCH": 7327, "BSTAR": 0.00015951402, "MEAN_MOTION_DOT": 7.87e-06, "MEAN_MOTION_DDOT": 0}, "tle": {"line1": "1 28893U 05043D   25346.95558972  .00000787  00000+0  15951-3 0  9997", "line2": "2 28893  98.2603 115.5133 0015353 136.3453 223.8967 14.63963084 73271"}}, "geometry": {"type": "Point", "coordinates": [120.22485842052286, -26.204582842252638]}}, {"type": "Feature", "properties": {"norad_id": 29079, "name": "EROS B", "group": "resource", "lat": -66.00173437952557, "lon": 121.02501911187535, "alt_km": 368.59217682961935, "timestamp": "2025-12-13T13:34:34.731271+00:00", "meta": {"OBJECT_NAME": "EROS B", "OBJECT_ID": "2006-014A", "EPOCH": "2025-12-13T00:04:53.472288", "MEAN_MOTION": 15.68378681, "ECCENTRICITY": 0.00022523, "INCLINATION": 97.3466, "RA_OF_ASC_NODE": 103.589, "ARG_OF_PERICENTER": 305.1571, "MEAN_ANOMALY": 54.948, "EPHEMERIS_TYPE": 0, "CLASSIFICATION_TYPE": "U", "NORAD_CAT_ID": 29079, "ELEMENT_SET_NO": 999, "REV_AT_EPOCH": 9084, "BSTAR": 0.0018543815, "MEAN_MOTION_DOT": 0.00213117, "MEAN_MOTION_DDOT": 0}, "tle": {"line1": "1 29079U 06014A   25347.00339667  .00213117  00000+0  18544-2 0  9991", "line2": "2 29079  97.3466 103.5890 0002252 305.1571  54.9480 15.68378681 90847"}}, "geometry": {"type": "Point", "coordinates": [121.02501911187535, -66.00173437952557]}}, {"type": "Feature", "properties": {"norad_id": 29228, "name": "RESURS-DK 1", "group": "resource", "lat": 38.653557676674936, "lon": 116.70470997540491, "alt_km": 530.1351571029027, "timestamp": "2025-12-13T13:34:34.731281+00:00", "meta": {"OBJECT_NAME": "RESURS-DK 1", "OBJECT_ID": "2006-021A", "EPOCH": "2025-12-12T18:20:29.454720", "MEAN_MOTION": 15.12161288, "ECCENTRICITY": 0.00072209, "INCLINATION": 69.9331, "RA_OF_ASC_NODE": 101.7749, "ARG_OF_PERICENTER": 259.1692, "MEAN_ANOMALY": 100.8661, "EPHEMERIS_TYPE": 0, "CLASSIFICATION_TYPE": "U", "NORAD_CAT_ID": 29228, "ELEMENT_SET_NO": 999, "REV_AT_EPOCH": 7438, "BSTAR": 0.00025215557, "MEAN_MOTION_DOT": 4.255e-05, "MEAN_MOTION_DDOT": 0}, "tle": {"line1": "1 29228U 06021A   25346.76422980  .00004255  00000+0  25216-3 0  9994", "line2": "2 29228  69.9331 101.7749 0007220 259.1692 100.8661 15.12161288 74389"}}, "geometry": {"type": "Point", "coordinates": [116.70470997540491, 38.653557676674936]}}, {"type": "Feature", "properties": {"norad_id": 29268, "name": "ARIRANG-2 (KOMPSAT-2)", "group": "resource", "lat": -59.676949140089185, "lon": -17.60302048799813, "alt_km": 681.9712175539098, "timestamp": "2025-12-13T13:34:34.731290+00:00", "meta": {"OBJECT_NAME": "ARIRANG-2 (KOMPSAT-2)", "OBJECT_ID": "2006-031A", "EPOCH": "2025-12-13T01:31:14.729088", "MEAN_MOTION": 14.64495292, "ECCENTRICITY": 0.00134987, "INCLINATION": 97.8265, "RA_OF_ASC_NODE": 175.5206, "ARG_OF_PERICENTER": 308.2866, "MEAN_ANOMALY": 165.6993, "EPHEMERIS_TYPE": 0, "CLASSIFICATION_TYPE": "U", "NORAD_CAT_ID": 29268, "ELEMENT_SET_NO": 999, "REV_AT_EPOCH": 3423, "BSTAR": 0.00018787653, "MEAN_MOTION_DOT": 9.51e-06, "MEAN_MOTION_DDOT": 0}, "tle": {"line1": "1 29268U 06031A   25347.06336492  .00000951  00000+0  18788-3 0  9990", "line2": "2 29268  97.8265 175.5206 0013498 308.2866 165.6993 14.64495292 34237"}}, "geometry": {"type": "Point", "coordinates": [-17.60302048799813, -59.676949140089185]}}, {"type": "Feature", "properties": {"norad_id": 29709, "name": "LAPAN-TUBSAT", "group": "resource", "lat": -57.34339938273941, "lon": 144.85781083323664, "alt_km": 627.817927574255, "timestamp": "2025-12-13T13:34:34.731300+00:00", "meta": {"OBJECT_NAME": "LAPAN-TUBSAT", "OBJECT_ID": "2007-001A", "EPOCH": "2025-12-12T23:34:36.716160", "MEAN_MOTION": 14.85670038, "ECCENTRICITY": 0.00135829, "INCLINATION": 98.126, "RA_OF_ASC_NODE": 337.1437, "ARG_OF_PERICENTER": 73.2854, "MEAN_ANOMALY": 286.985, "EPHEMERIS_TYPE": 0, "CLASSIFICATION_TYPE": "U", "NORAD_CAT_ID": 29709, "ELEMENT_SET_NO": 999, "REV_AT_EPOCH": 2350, "BSTAR": 0.00011657228, "MEAN_MOTION_DOT": 9.54e-06, "MEAN_MOTION_DDOT": 0}, "tle": {"line1": "1 29709U 07001A   25346.98236940  .00000954  00000+0  11657-3 0  9996", "line2": "2 29709  98.1260 337.1437 0013582  73.2854 286.9850 14.85670038 23501"}}, "geometry": {"type": "Point", "coordinates": [144.85781083323664, -57.34339938273941]}}, {"type": "Feature", "properties": {"norad_id": 31113, "name": "HAIYANG-1B", "group": "resource", "lat": -38.80035558603177, "lon": -21.423866916820494, "alt_km": 792.2264632738761, "timestamp": "2025-12-13T13:34:34.731309+00:00", "meta": {"OBJECT_NAME": "HAIYANG-1B", "OBJECT_ID": "2007-010A", "EPOCH": "2025-12-12T22:39:21.282912", "MEAN_MOTION": 14.30965156, "ECCENTRICITY": 0.00142446, "INCLINATION": 98.3315, "RA_OF_ASC_NODE": 331.2137, "ARG_OF_PERICENTER": 37.3603, "MEAN_ANOMALY": 322.8569, "EPHEMERIS_TYPE": 0, "CLASSIFICATION_TYPE": "U", "NORAD_CAT_ID": 31113, "ELEMENT_SET_NO": 999, "REV_AT_EPOCH": 97399, "BSTAR": 9.7006486e-05, "MEAN_MOTION_DOT": 2.14e-06, "MEAN_MOTION_DDOT": 0}, "tle": {"line1": "1 31113U 07010A   25346.94399633  .00000214  00000+0  97006-4 0  9995", "line2": "2 31113  98.3315 331.2137 0014244  37.3603 322.8569 14.30965156973999"}}, "geometry": {"type": "Point", "coordinates": [-21.423866916820494, -38.80035558603177]}}, {"type": "Feature", "properties": {"norad_id": 31598, "name": "COSMO-SKYMED 1", "group": "resource", "lat": -43.757445696856124, "lon": -14.654606966782191, "alt_km": 587.3123722701157, "timestamp": "2025-12-13T13:34:34.731320+00:00", "meta": {"OBJECT_NAME": "COSMO-SKYMED 1", "OBJECT_ID": "2007-023A", "EPOCH": "2025-12-12T23:43:58.787904", "MEAN_MOTION": 14.95766931, "ECCENTRICITY": 0.00012327, "INCLINATION": 97.8835, "RA_OF_ASC_NODE": 172.3895, "ARG_OF_PERICENTER": 88.6605, "MEAN_ANOMALY": 271.4757, "EPHEMERIS_TYPE": 0, "CLASSIFICATION_TYPE": "U", "NORAD_CAT_ID": 31598, "ELEMENT_SET_NO": 999, "REV_AT_EPOCH": 194, "BSTAR": 0.00052596313, "MEAN_MOTION_DOT": 5.807e-05, "MEAN_MOTION_DDOT": 0}, "tle": {"line1": "1 31598U 07023A   25346.98887486  .00005807  00000+0  52596-3 0  9995", "line2": "2 31598  97.8835 172.3895 0001232  88.6605 271.4757 14.95766931  1942"}}, "geometry": {"type": "Point", "coordinates": [-14.654606966782191, -43.757445696856124]}}, {"type": "Feature", "properties": {"norad_id": 31698, "name": "TERRASAR-X", "group": "resource", "lat": -50.07056080297181, "lon": 1.9248319701022416, "alt_km": 516.2594072772472, "timestamp": "2025-12-13T13:34:34.731334+00:00", "meta": {"OBJECT_NAME": "TERRASAR-X", "OBJECT_ID": "2007-026A", "EPOCH": "2025-12-12T14:05:10.891104", "MEAN_MOTION": 15.19146945, "ECCENTRICITY": 0.00019276, "INCLINATION": 97.4459, "RA_OF_ASC_NODE": 351.9708, "ARG_OF_PERICENTER": 85.8663, "MEAN_ANOMALY": 274.2792, "EPHEMERIS_TYPE": 0, "CLASSIFICATION_TYPE": "U", "NORAD_CAT_ID": 31698, "ELEMENT_SET_NO": 999, "REV_AT_EPOCH": 2489, "BSTAR": 0.00011245028, "MEAN_MOTION_DOT": 2.295e-05, "MEAN_MOTION_DDOT": 0}, "tle": {"line1": "1 31698U 07026A   25346.58693161  .00002295  00000+0  11245-3 0  9994", "line2": "2 31698  97.4459 351.9708 0001927  85.8663 274.2792 15.19146945 24896"}}, "geometry": {"type": "Point", "coordinates": [1.9248319701022416, -50.07056080297181]}}, {"type": "Feature", "properties": {"norad_id": 32060, "name": "WORLDVIEW-1 (WV-1)", "group": "resource", "lat": -32.58242344706733, "lon": 109.78812903791868, "alt_km": 498.2770986416035, "timestamp": "2025-12-13T13:34:34.731349+00:00", "meta": {"OBJECT_NAME": "WORLDVIEW-1 (WV-1)", "OBJECT_ID": "2007-041A", "EPOCH": "2025-12-12T21:58:09.822144", "MEAN_MOTION": 15.24694402, "ECCENTRICITY": 8.133e-05, "INCLINATION": 97.3831, "RA_OF_ASC_NODE": 104.3936, "ARG_OF_PERICENTER": 108.0465, "MEAN_ANOMALY": 252.0862, "EPHEMERIS_TYPE": 0, "CLASSIFICATION_TYPE": "U", "NORAD_CAT_ID": 32060, "ELEMENT_SET_NO": 999, "REV_AT_EPOCH": 1450, "BSTAR": 0.00047223547, "MEAN_MOTION_DOT": 0.00011614, "MEAN_MOTION_DDOT": 0}, "tle": {"line1": "1 32060U 07041A   25346.91539146  .00011614  00000+0  47224-3 0  9995", "line2": "2 32060  97.3831 104.3936 0000813 108.0465 252.0862 15.24694402 14508"}}, "geometry": {"type": "Point", "coordinates": [109.78812903791868, -32.58242344706733]}}]}